#dP2023 10  9  6  0  0.00000000      96 __u+U ITR00 EXT  IAC
## 2283 108000.00000000   900.00000000 60226 0.2500000000000
+  119   C07C08C09C10C11C12C13C14C16C19C20C21C22C23C24C25C26
+        C27C28C29C30C32C33C34C35C36C37C38C39C40C41C42C43C44
+        C45C46E02E03E04E05E07E08E09E10E11E12E13E14E15E18E19
+        E21E24E25E26E27E30E31E33E34E36G01G02G03G04G05G06G07
+        G08G09G10G11G12G13G14G15G16G17G18G19G20G21G22G23G24
+        G25G26G27G28G29G30G31G32J02J03J04R01R02R03R04R05R07
+        R08R09R11R12R13R14R15R16R17R18R19R20R21R22R24R25R26
++         8 10  7  6  9  9  7  8  7  7  9 10  8 10  7  9  8
++         7  7  8  8  9  8  9  8  9  8  9 10  8  9  8  8 10
++         8  8  7  7  5  7  7  8  7  8  7  8  7  8  7  7  8
++         7  6  7  7  8  7  6  6  7  8 12  7  6  7  8  8  8
++         7  6  6 10  7  8  7  6  7  7 10  6  8  9  7  7  8
++         6  7  7  7  6  8  7  7  9  9  9  8  6  6  8  8  8
++         9  9  8  9  8  8  8  9  7  8  9  8  7  9  7  8 10
%c M  cc GPS ccc cccc cccc cccc cccc ccccc ccccc ccccc ccccc
%c cc cc ccc ccc cccc cccc cccc cccc ccccc ccccc ccccc ccccc
%f  0.0000000  0.000000000  0.00000000000  0.000000000000000
%f  0.0000000  0.000000000  0.00000000000  0.000000000000000
%i    0    0    0    0      0      0      0      0         0
%i    0    0    0    0      0      0      0      0         0
/* IAC                                ULTRA-RAPID PREDICTION
/* S/V CLOCKS ARE ALIGNED TO GNSS TIME                      
/* G:C1WC2W R:C1PC2P E:C1XC5X C:C2IC6I J:C1CC2S             
/* PCV:IGS20_2280 OL/AL:FES2004  NONE     YN ORB:CoN CLK:CoN
*  2023 10 10  3  0  0.00000000
PC07  -4641.951614  29510.561534 -29604.943508   -134.223115
PC08 -17373.247345  22160.058512  31283.476686    304.559191
PC09  -8826.225808  40501.546693  -8827.675072     61.224670
PC10   3732.387025  32401.825403 -26115.070497   -206.304595
PC11  -6677.478973 -23873.190686 -12769.713861    195.587180
PC12   5115.140789 -26966.353158   5133.932660    903.878802
PC13  -9713.341968  23758.297653  33517.063179    365.149895
PC14 -17178.783144 -19321.120695 -10566.661370    558.544327
PC16 -15588.605573  39206.682267   3719.222223   -118.617219
PC19  22953.153153  15773.388638   1623.758151   -971.490915
PC20  10195.508520  19860.112771  16729.337335    216.237267
PC21   9881.932735 -12266.254598 -23030.215797   -969.675011
PC22  23202.168729   2362.398189 -15321.810901   -272.825912
PC23 -25669.436433   6057.729164   9111.974822   -848.688725
PC24   2870.905141 -18426.934765  20757.297593    478.326363
PC25 -16940.877328  -7681.511160  20787.157300    229.481191
PC26  19197.504607 -18130.518544   9068.865373   -189.518555
PC27 -10006.263087  22765.064644 -12684.957991    211.232694
PC28 -15755.230772   6517.686655 -22082.864796    158.866985
PC29  13036.846984  15910.319301  18854.232771    185.672047
PC30   2087.267397  27624.440888   3420.783680     -6.241146
PC32  -9938.716452  12260.450938  23019.241338   -529.355351
PC33 -23021.969100 -15689.446355  -1726.014211   -956.640931
PC34  -3037.698872 -27312.442044  -4817.950185    277.721873
PC35  15578.346878  -7099.044300  22024.473561    528.636096
PC36  16081.307906   8661.760581 -21077.309732   -186.926222
PC37 -20104.803383  17415.682935  -8381.824586   -849.072851
PC38 -24488.747185  23467.433698  24958.140312    110.151808
PC39 -16002.012445  38119.800059   8966.396269     -5.162359
PC40  -7950.754863  24322.514001 -33430.876951    -39.548615
PC41 -23535.049751  -2851.719363  14769.896237   -873.685234
PC42  -8804.405528 -19723.316010 -17647.826331   -525.734468
PC43 -12755.113068 -16767.747369 -18299.272783     43.309955
PC44   9302.657590 -22989.226554  12760.632779    256.939643
PC45  25742.866619  -6500.591605  -8634.688785    -34.454196
PC46  -1563.030643  17951.705490 -21298.848326    -90.657790
PE02 -13059.281282 -15900.508200  21275.003171     69.071857
PE03 -12900.501126 -26641.844263    537.084969    -63.568275
PE04  19797.657359  13364.149681 -17483.753887   -230.799342
PE05   1472.013748 -24414.529163 -16676.092052     25.999211
PE07 -15268.412015   7459.313202  24233.888669    -80.956899
PE08 -19684.850679 -13884.910346  17200.784947   -159.040273
PE09  15198.998049  -7280.898051 -24339.637760   -185.916479
PE10  20655.979383  -7398.934829  19871.592419   -569.989048
PE11  21177.053148 -16944.441636  11847.482236   3066.902547
PE12  17176.132259   2467.711287  23978.136750   -730.361891
PE13 -21212.962017  16413.766163 -12511.739840    -19.706077
PE14 -18998.055448 -23825.484856 -10825.595603    364.218924
PE15 -16879.234316  -2869.926979 -24138.290461    -59.939779
PE18  13326.730733  17963.943880   7465.943783    626.795580
PE19  11243.292508  27320.516821   1864.988820  -1457.654457
PE21  -8429.663895  15614.637006 -23686.408810   -557.498776
PE24  26450.296621  -5844.320004  11951.239254   -367.176042
PE25   8851.784607 -15522.928784  23608.524817     -3.019825
PE26 -12574.767602  25884.033029   6910.363484    246.758671
PE27 -26109.148550   6264.662567 -12441.464902   -170.687917
PE30 -28042.059169  -7007.037034   6345.186040   -567.266369
PE31  28216.006611   6653.565452  -5980.895935     -7.198986
PE33   2224.477489  20572.895162  21162.212778      0.180319
PE34  -2763.976907 -20199.089572 -21469.827530    -71.542640
PE36  13080.557433 -25807.760828  -6251.790436   -127.762024
PG01  14331.761673 -22029.017422  -2546.971266    163.935653
PG02  16594.504254 -19906.918558   5852.461345   -543.941678
PG03  11508.037500 -12624.331921 -20453.447297    -88.069728
PG04   3705.612622 -20617.601470 -16245.885700    180.035253
PG05 -23664.500793   5984.236671  10405.842889   -145.907588
PG06 -13665.761375  -5758.807475 -21977.271257    533.897889
PG07    615.358581 -20991.929252  16444.157947     44.583032
PG08  10560.600036 -12117.793428  21001.018827   -146.350619
PG09  -5054.101268 -24587.525146  -8690.270073    -36.782467
PG10  20282.205678  11080.652429  13561.340664    -56.702714
PG11 -19710.855201   6477.417043 -16533.870172   -407.992533
PG12 -14959.871884  11016.303109 -19229.084510   -434.136611
PG13 -14856.964134   2208.939787  21717.376173    582.230324
PG14 -17074.623213 -13370.391032  15471.194995    209.489390
PG15  -8468.724520  14395.691275  20121.275788     85.592426
PG16  26050.858071    669.400583   5942.303361   -441.560543
PG17 -13008.107491 -22085.611275  -6279.894501    723.855605
PG18    114.003560  19837.272976  17577.794212   -443.975802
PG19 -15750.127571 -16211.964784 -14417.171269    382.846479
PG20 -26400.812225    988.179214  -1374.415705    407.617387
PG21  17561.713895 -17279.387593   9106.481261    147.123012
PG22 -21632.539866 -11470.048418  10384.040200    105.858807
PG23   8207.910601  14588.694249  20672.575271     80.359447
PG24 -14993.733686  21394.410286   2886.617316   -342.016881
PG25   -224.080669  15582.930326 -21832.880060    471.963603
PG26  26017.925039   4164.216340  -4756.228602    224.090969
PG27  16485.468952   1745.351342  20587.101939    -52.732568
PG28  13056.389847   7810.494326 -21795.508431    -22.821167
PG29   2934.987197  24939.152057  -8534.620882   -609.967789
PG30  -8242.382663 -14590.511862  20678.305533   -480.078606
PG31  18424.637436  -1693.130027 -19396.495090   -224.462262
PG32  16199.482438  18730.128287  -9695.183864   -570.446412
PJ02 -30649.684252  15729.384458 -19664.091414     -5.408770
PJ03 -24210.821028  31844.825118  -8671.636490     -4.692674
PJ04 -26665.176584  26051.771126  25619.599701     71.078865
PR01  15850.980873  18558.842723   7399.445988     67.367117
PR02  19932.149895  12005.828816 -10498.232648    -22.390934
PR03  12954.856909  -2057.243196 -21850.866353     86.779129
PR04  -1095.087584 -14412.017294 -20990.996837    206.192916
PR05 -14375.957592 -19153.267787  -8737.312292    120.369515
PR07 -12294.559917   2866.813548  22188.007674     66.501599
PR08   1294.302011  14629.162340  20918.169903    -72.894816
PR09 -21968.517199    731.663551  13032.325915    146.787649
PR11 -12813.389994  13056.452894 -17772.220716   -191.036294
PR12   7431.369754   9022.688059 -22646.066896     32.172294
PR13  20738.679535    650.668183 -14850.059251    -40.032754
PR14  23338.219825  -9544.965104   3807.509236     25.372480
PR15  11564.738313 -13062.865458  18627.873842     85.508366
PR16  -7150.002050  -8971.909157  22797.255407     19.481339
PR17  11572.112150 -14537.133785  17513.926888     24.404488
PR18   7238.385157 -24271.752294   2865.213100    106.072543
PR19    612.703928 -22473.984453 -12060.433829   -250.327648
PR20  -9254.635883  -5188.168214 -23183.332936   -101.529466
PR21 -11513.655490  15162.126002 -16952.812566    -44.378837
PR22  -7579.117512  24293.672494  -1763.365088     87.965820
PR24  10102.476424   4305.334707  23042.437472    -27.619822
PR25 -12404.194507  13892.445687 -17408.609211     28.840841
PR26    929.890704  14310.480240  21104.272693    -21.168817
EOF
